{"type":"FeatureCollection","features":[{"type":"Feature","geometry":{"type":"Polygon","coordinates":[[[74.7139,34.3467],[74.7529,34.3395],[75.0248,34.2605],[75.1937,34.1901],[75.1489,34.0842],[75.0462,34.0637],[74.9294,33.9789],[74.8915,34.049],[74.8232,34.049],[74.7202,34.1484],[74.6657,34.3087],[74.7139,34.3467]]]},"properties":{"district":"Srinagar","dt_cen_cd":10,"st_nm":"Jammu & Kashmir","censuscode":10,"st_cen_cd":1}},{"type":"Feature","geometry":{"type":"Polygon","coordinates":[[[74.7529,34.3395],[74.7139,34.3467],[74.5306,34.3198],[74.5151,34.3999],[74.4263,34.3445],[74.3656,34.3544],[74.4169,34.4505],[74.5043,34.4791],[74.5497,34.5494],[74.531,34.6458],[74.5788,34.711],[74.5728,34.7644],[74.575,34.7626],[74.6041,34.7542],[74.6041,34.7403],[74.6487,34.7104],[74.7293,34.7142],[74.7504,34.7203],[74.9353,34.5856],[74.9878,34.5286],[75.0835,34.5],[75.3046,34.515],[75.3924,34.5434],[75.4,34.4227],[75.3582,34.352],[75.1513,34.3608],[75.0231,34.4391],[74.9532,34.4551],[74.8775,34.3507],[74.7529,34.3395]]]},"properties":{"district":"Bandipore","dt_cen_cd":9,"st_nm":"Jammu & Kashmir","censuscode":9,"st_cen_cd":1}},{"type":"Feature","geometry":{"type":"Polygon","coordinates":[[[75.1527,33.5786],[75.1231,33.4703],[75.0098,33.4612],[74.84,33.4582],[74.7537,33.5248],[74.6012,33.4525],[74.5545,33.4769],[74.5144,33.6628],[74.5554,33.6922],[74.7488,33.6754],[74.7786,33.6254],[74.9942,33.7121],[75.0217,33.7926],[75.055,33.8271],[75.1308,33.7202],[75.0919,33.6373],[75.1527,33.5786]]]},"properties":{"district":"Kulgam","dt_cen_cd":15,"st_nm":"Jammu & Kashmir","censuscode":15,"st_cen_cd":1}},{"type":"Feature","geometry":{"type":"Polygon","coordinates":[[[74.9467,32.8771],[75.0502,32.8844],[75.1609,32.77],[75.0505,32.7234],[74.9468,32.5956],[74.8301,32.486],[74.681,32.4865],[74.6521,32.5593],[74.6504,32.6983],[74.6166,32.7553],[74.5073,32.7439],[74.4512,32.7836],[74.5216,32.8887],[74.4941,32.9459],[74.5913,32.9962],[74.6688,32.9572],[74.782,33.0318],[74.8457,32.9632],[74.8353,32.8799],[74.9467,32.8771]]]},"properties":{"district":"Jammu","dt_cen_cd":21,"st_nm":"Jammu & Kashmir","censuscode":21,"st_cen_cd":1}},{"type":"Feature","geometry":{"type":"Polygon","coordinates":[[[74.8232,34.049],[74.8915,34.049],[74.9294,33.9789],[74.9204,33.9171],[74.7803,33.804],[74.5554,33.6922],[74.5144,33.6628],[74.3938,33.826],[74.4134,33.8569],[74.5363,33.9912],[74.6351,34.0352],[74.7872,34.0679],[74.8232,34.049]]]},"properties":{"district":"Badgam","dt_cen_cd":2,"st_nm":"Jammu & Kashmir","censuscode":2,"st_cen_cd":1}},{"type":"Feature","geometry":{"type":"Polygon","coordinates":[[[75.2014,32.4095],[75.246,32.5408],[75.3718,32.6304],[75.4705,32.6888],[75.4879,32.7398],[75.6543,32.7546],[75.6979,32.8109],[75.8245,32.8538],[75.8247,32.8538],[75.929,32.7571],[75.9399,32.6435],[75.8202,32.4869],[75.7272,32.4181],[75.483,32.3179],[75.318,32.3345],[75.2014,32.4095]]]},"properties":{"district":"Kathua","dt_cen_cd":7,"st_nm":"Jammu & Kashmir","censuscode":7,"st_cen_cd":1}},{"type":"Feature","geometry":{"type":"Polygon","coordinates":[[[74.5144,33.6628],[74.5545,33.4769],[74.4462,33.5115],[74.3861,33.5664],[74.2732,33.5457],[74.1845,33.441],[74.1288,33.3754],[74.0738,33.4367],[74.0815,33.5216],[73.9207,33.5617],[73.9039,33.5995],[73.8815,33.6498],[73.8844,33.7399],[73.8845,33.7428],[73.9448,33.8367],[74.0034,33.863],[74.1489,33.9283],[74.1624,34.01],[74.2655,33.9882],[74.2682,33.9866],[74.3201,33.9556],[74.4134,33.8569],[74.3938,33.826],[74.5144,33.6628]]]},"properties":{"district":"Punch","dt_cen_cd":5,"st_nm":"Jammu & Kashmir","censuscode":5,"st_cen_cd":1}},{"type":"Feature","geometry":{"type":"Polygon","coordinates":[[[75.1937,34.1901],[75.0248,34.2605],[74.7529,34.3395],[74.8775,34.3507],[74.9532,34.4551],[75.0231,34.4391],[75.1513,34.3608],[75.3582,34.352],[75.631,34.2227],[75.4563,34.1689],[75.3086,34.2251],[75.2564,34.1704],[75.1937,34.1901]]]},"properties":{"district":"Ganderbal","dt_cen_cd":11,"st_nm":"Jammu & Kashmir","censuscode":11,"st_cen_cd":1}},{"type":"Feature","geometry":{"type":"Polygon","coordinates":[[[74.9294,33.9789],[75.0462,34.0637],[75.1489,34.0842],[75.1889,34.0443],[75.1913,33.9168],[75.055,33.8271],[75.0217,33.7926],[74.9775,33.8343],[74.7803,33.804],[74.9204,33.9171],[74.9294,33.9789]]]},"properties":{"district":"Pulwama","dt_cen_cd":12,"st_nm":"Jammu & Kashmir","censuscode":12,"st_cen_cd":1}},{"type":"Feature","geometry":{"type":"Polygon","coordinates":[[[74.7139,34.3467],[74.6657,34.3087],[74.7202,34.1484],[74.8232,34.049],[74.7872,34.0679],[74.6351,34.0352],[74.5363,33.9912],[74.4134,33.8569],[74.3201,33.9556],[74.2913,34.0921],[74.3149,34.2028],[74.02,34.2853],[74.3656,34.3544],[74.4263,34.3445],[74.5151,34.3999],[74.5306,34.3198],[74.7139,34.3467]]]},"properties":{"district":"Baramula","dt_cen_cd":8,"st_nm":"Jammu & Kashmir","censuscode":8,"st_cen_cd":1}},{"type":"Feature","geometry":{"type":"Polygon","coordinates":[[[75.8247,32.8538],[75.8245,32.8538],[75.7516,32.8655],[75.6665,32.9344],[75.4728,32.999],[75.2915,33.0969],[75.3334,33.2185],[75.3189,33.2973],[75.4171,33.3583],[75.4999,33.399],[75.6288,33.2224],[75.7249,33.2153],[75.8245,33.1523],[75.7952,33.0642],[75.943,33.0569],[76.0455,33.0976],[76.1111,33.0033],[76.0341,32.9177],[75.9506,32.8845],[75.8247,32.9303],[75.8247,32.8538]]]},"properties":{"district":"Doda","dt_cen_cd":16,"st_nm":"Jammu & Kashmir","censuscode":16,"st_cen_cd":1}},{"type":"Feature","geometry":{"type":"Polygon","coordinates":[[[74.5545,33.4769],[74.6012,33.4525],[74.6409,33.4044],[74.6451,33.2162],[74.6254,33.1023],[74.5417,33.0632],[74.4005,33.0715],[74.3553,33.108],[74.2172,33.1461],[74.1733,33.2046],[74.1546,33.3227],[74.1537,33.328],[74.1288,33.3754],[74.1845,33.441],[74.2732,33.5457],[74.3861,33.5664],[74.4462,33.5115],[74.5545,33.4769]]]},"properties":{"district":"Rajouri","dt_cen_cd":6,"st_nm":"Jammu & Kashmir","censuscode":6,"st_cen_cd":1}},{"type":"Feature","geometry":{"type":"Polygon","coordinates":[[[75.0098,33.4612],[75.1231,33.4703],[75.1527,33.5786],[75.3487,33.3929],[75.4171,33.3583],[75.3189,33.2973],[75.3334,33.2185],[75.2915,33.0969],[75.0764,33.1643],[75.0182,33.2214],[75.0372,33.4065],[75.0098,33.4612]]]},"properties":{"district":"Ramban","dt_cen_cd":17,"st_nm":"Jammu & Kashmir","censuscode":17,"st_cen_cd":1}},{"type":"Feature","geometry":{"type":"Polygon","coordinates":[[[75.0217,33.7926],[74.9942,33.7121],[74.7786,33.6254],[74.7488,33.6754],[74.5554,33.6922],[74.7803,33.804],[74.9775,33.8343],[75.0217,33.7926]]]},"properties":{"district":"Shupiyan","dt_cen_cd":13,"st_nm":"Jammu & Kashmir","censuscode":13,"st_cen_cd":1}},{"type":"Feature","geometry":{"type":"Polygon","coordinates":[[[75.1609,32.77],[75.0502,32.8844],[74.9467,32.8771],[74.9621,32.9448],[75.0448,33.0015],[75.0167,33.0919],[75.0764,33.1643],[75.2915,33.0969],[75.4728,32.999],[75.6665,32.9344],[75.7516,32.8655],[75.8245,32.8538],[75.6979,32.8109],[75.6543,32.7546],[75.4879,32.7398],[75.4705,32.6888],[75.3718,32.6304],[75.2927,32.643],[75.1609,32.77]]]},"properties":{"district":"Udhampur","dt_cen_cd":19,"st_nm":"Jammu & Kashmir","censuscode":19,"st_cen_cd":1}},{"type":"Feature","geometry":{"type":"Polygon","coordinates":[[[75.1489,34.0842],[75.1937,34.1901],[75.2564,34.1704],[75.3086,34.2251],[75.4563,34.1689],[75.631,34.2227],[75.7074,34.2158],[75.6118,34.1328],[75.6107,34.0429],[75.5057,33.9658],[75.4718,33.9045],[75.481,33.8164],[75.5458,33.6592],[75.5737,33.5187],[75.4999,33.399],[75.4171,33.3583],[75.3487,33.3929],[75.1527,33.5786],[75.0919,33.6373],[75.1308,33.7202],[75.055,33.8271],[75.1913,33.9168],[75.1889,34.0443],[75.1489,34.0842]]]},"properties":{"district":"Anantnag","dt_cen_cd":14,"st_nm":"Jammu & Kashmir","censuscode":14,"st_cen_cd":1}},{"type":"Feature","geometry":{"type":"Polygon","coordinates":[[[77.2383,32.8949],[77.2716,33.0213],[77.2665,33.1264],[77.3358,33.2057],[77.3454,33.3616],[77.4391,33.4287],[77.5252,33.5246],[77.4898,33.6097],[77.3279,33.6279],[77.2235,33.7456],[76.978,33.7756],[76.9174,33.8233],[76.7124,33.9222],[76.6353,34.0207],[76.6333,34.0936],[76.7112,34.2461],[76.6806,34.2885],[76.5993,34.6074],[76.4824,34.682],[76.4438,34.7475],[76.4125,34.8007],[76.3751,34.8331],[76.4675,34.8288],[76.5393,34.8254],[76.6866,34.8292],[76.8474,34.8333],[77.0688,34.8798],[77.109,34.9616],[77.0945,35.0435],[77.0896,35.0466],[77.0448,35.0744],[77.049,35.1104],[76.9132,35.3783],[76.8209,35.5602],[76.7774,35.6461],[76.843,35.6413],[76.8569,35.6286],[76.8752,35.607],[76.8805,35.6007],[76.8964,35.5896],[77.039,35.585],[77.1053,35.538],[77.1775,35.5232],[77.1844,35.5239],[77.2403,35.5296],[77.2508,35.5307],[77.4128,35.4694],[77.4154,35.4697],[77.4764,35.4772],[77.4809,35.4779],[77.5169,35.4886],[77.7189,35.4768],[77.8257,35.5104],[77.906,35.4693],[77.9673,35.575],[78.0463,35.5853],[78.1373,35.5389],[78.1998,35.6536],[78.2733,35.722],[78.3906,35.7384],[78.4232,35.7853],[78.5213,35.7638],[78.6582,35.854],[78.8045,35.8558],[78.9399,35.8796],[79.1177,35.8366],[79.1803,35.8702],[79.1898,35.9472],[79.2418,35.9868],[79.3868,35.9905],[79.4256,35.8951],[79.5184,35.8835],[79.746,35.8003],[79.8689,35.7828],[79.9992,35.8378],[80.1154,35.677],[80.2947,35.6024],[80.3286,35.4726],[80.2287,35.2281],[80.1835,35.1667],[80.1709,34.9889],[80.0732,34.8284],[80.069,34.7148],[79.9446,34.6811],[79.8607,34.6888],[79.772,34.6225],[79.7585,34.5547],[79.794,34.4851],[79.5802,34.4899],[79.5596,34.4112],[79.5842,34.2384],[79.4948,34.18],[79.4947,34.1359],[79.3757,34.0334],[79.1981,34.0512],[79.0841,34.0219],[79.0148,34.0503],[78.9057,33.9762],[79.0202,33.7757],[79.0205,33.7057],[79.0921,33.6795],[79.1055,33.6137],[78.9192,33.6336],[78.9333,33.4328],[78.9934,33.3308],[79.0973,33.2946],[79.2406,33.2978],[79.4549,33.2585],[79.3774,33.0847],[79.3835,32.9723],[79.464,32.9201],[79.6269,32.7375],[79.4481,32.5325],[79.3395,32.592],[79.1951,32.483],[79.1151,32.3842],[78.9601,32.367],[78.8272,32.4387],[78.7496,32.6816],[78.6621,32.6536],[78.619,32.5961],[78.5357,32.6086],[78.4439,32.5699],[78.3278,32.4722],[78.3142,32.574],[78.4066,32.6197],[78.3136,32.7094],[78.2017,32.6605],[78.111,32.6589],[78.0533,32.5886],[77.9942,32.5887],[77.9209,32.69],[77.9357,32.7539],[77.8791,32.8133],[77.7793,32.8621],[77.8081,32.9027],[77.7306,32.9693],[77.5995,32.9368],[77.4729,32.8594],[77.3971,32.8786],[77.3392,32.8202],[77.2383,32.8949]]]},"properties":{"district":"Leh (ladakh)","dt_cen_cd":null,"st_nm":"Ladakh","censuscode":null,"st_cen_cd":null}},{"type":"Feature","geometry":{"type":"Polygon","coordinates":[[[74.8301,32.486],[74.9468,32.5956],[75.0505,32.7234],[75.1609,32.77],[75.2927,32.643],[75.3718,32.6304],[75.246,32.5408],[75.2014,32.4095],[75.1305,32.4061],[75.11,32.4702],[75.0333,32.4927],[74.9466,32.4434],[74.8301,32.486]]]},"properties":{"district":"Samba","dt_cen_cd":22,"st_nm":"Jammu & Kashmir","censuscode":22,"st_cen_cd":1}},{"type":"Feature","geometry":{"type":"Polygon","coordinates":[[[76.1111,33.0033],[76.0455,33.0976],[75.943,33.0569],[75.7952,33.0642],[75.8245,33.1523],[75.7249,33.2153],[75.6288,33.2224],[75.4999,33.399],[75.5737,33.5187],[75.5458,33.6592],[75.481,33.8164],[75.4718,33.9045],[75.5057,33.9658],[75.6107,34.0429],[75.6118,34.1328],[75.7074,34.2158],[75.7935,34.1035],[75.9431,33.9872],[76.0571,33.986],[76.1105,33.8946],[76.2105,33.7864],[76.2496,33.6085],[76.3974,33.668],[76.5818,33.5154],[76.6647,33.4289],[76.6867,33.339],[76.7533,33.3219],[76.796,33.2549],[76.7478,33.1786],[76.6448,33.1618],[76.5653,33.209],[76.4022,33.1826],[76.2924,33.1038],[76.2546,33.0324],[76.1111,33.0033]]]},"properties":{"district":"Kishtwar","dt_cen_cd":18,"st_nm":"Jammu & Kashmir","censuscode":18,"st_cen_cd":1}},{"type":"Feature","geometry":{"type":"Polygon","coordinates":[[[74.6012,33.4525],[74.7537,33.5248],[74.84,33.4582],[75.0098,33.4612],[75.0372,33.4065],[75.0182,33.2214],[75.0764,33.1643],[75.0167,33.0919],[75.0448,33.0015],[74.9621,32.9448],[74.9467,32.8771],[74.8353,32.8799],[74.8457,32.9632],[74.782,33.0318],[74.6688,32.9572],[74.5913,32.9962],[74.5417,33.0632],[74.6254,33.1023],[74.6451,33.2162],[74.6409,33.4044],[74.6012,33.4525]]]},"properties":{"district":"Reasi","dt_cen_cd":20,"st_nm":"Jammu & Kashmir","censuscode":20,"st_cen_cd":1}},{"type":"Feature","geometry":{"type":"Polygon","coordinates":[[[75.3582,34.352],[75.4,34.4227],[75.3924,34.5434],[75.4175,34.5489],[75.4246,34.5465],[75.4302,34.5446],[75.5338,34.5423],[75.6536,34.5108],[75.8271,34.5139],[75.9038,34.5446],[76.0059,34.6467],[76.1856,34.6014],[76.3529,34.6597],[76.4197,34.7281],[76.4438,34.7475],[76.4824,34.682],[76.5993,34.6074],[76.6806,34.2885],[76.7112,34.2461],[76.6333,34.0936],[76.6353,34.0207],[76.7124,33.9222],[76.9174,33.8233],[76.978,33.7756],[77.2235,33.7456],[77.3279,33.6279],[77.4898,33.6097],[77.5252,33.5246],[77.4391,33.4287],[77.3454,33.3616],[77.3358,33.2057],[77.2665,33.1264],[77.2716,33.0213],[77.2383,32.8949],[77.1751,32.9113],[77.1541,32.9787],[77.0161,32.988],[76.9352,33.0323],[76.8951,33.113],[76.816,33.1723],[76.796,33.2549],[76.7533,33.3219],[76.6867,33.339],[76.6647,33.4289],[76.5818,33.5154],[76.3974,33.668],[76.2496,33.6085],[76.2105,33.7864],[76.1105,33.8946],[76.0571,33.986],[75.9431,33.9872],[75.7935,34.1035],[75.7074,34.2158],[75.631,34.2227],[75.3582,34.352]]]},"properties":{"district":"Kargil","dt_cen_cd":null,"st_nm":"Ladakh","censuscode":null,"st_cen_cd":null}},{"type":"Feature","geometry":{"type":"Polygon","coordinates":[[[74.5728,34.7644],[74.5788,34.711],[74.531,34.6458],[74.5497,34.5494],[74.5043,34.4791],[74.4169,34.4505],[74.3656,34.3544],[74.02,34.2853],[73.9157,34.4358],[73.9097,34.4984],[73.9468,34.5326],[73.9577,34.5361],[73.9892,34.5423],[74.1013,34.5937],[74.188,34.6037],[74.1919,34.6144],[74.199,34.6224],[74.2232,34.636],[74.228,34.6352],[74.2472,34.639],[74.2794,34.6352],[74.3224,34.6912],[74.3228,34.692],[74.359,34.7124],[74.3682,34.7549],[74.4114,34.7823],[74.4191,34.7803],[74.4352,34.7741],[74.456,34.7818],[74.5258,34.7664],[74.5573,34.7772],[74.5605,34.7746],[74.5728,34.7644]]]},"properties":{"district":"Kupwara","dt_cen_cd":1,"st_nm":"Jammu & Kashmir","censuscode":1,"st_cen_cd":1}},{"type":"Feature","geometry":{"type":"Polygon","coordinates":[[[73.6945,34.0693],[73.8306,34.0818],[73.9175,34.02],[73.9515,34.0159],[73.9749,33.9184],[73.8439,33.9059],[73.7917,33.875],[73.6627,33.9731],[73.5855,33.9093],[73.5109,34.0188],[73.5015,34.1031],[73.6185,34.0623],[73.6945,34.0693]]]},"properties":{"district":"Bagh","st_nm":"Jammu & Kashmir","source":"alhasan-pok"}},{"type":"Feature","geometry":{"type":"Polygon","coordinates":[[[74.009,33.2436],[74.0084,33.2149],[74.1458,33.155],[74.1834,33.0929],[74.2978,33.0268],[74.4091,32.8963],[74.4375,32.7881],[74.3255,32.8142],[73.984,32.9668],[73.945,33.02],[73.8553,33.0248],[73.858,33.0998],[73.9164,33.1714],[73.9061,33.2249],[74.009,33.2436]]]},"properties":{"district":"Bhimber","st_nm":"Jammu & Kashmir","source":"alhasan-pok"}},{"type":"Feature","geometry":{"type":"Polygon","coordinates":[[[73.9175,34.02],[73.8306,34.0818],[73.6945,34.0693],[73.6495,34.1456],[73.7524,34.2485],[73.7587,34.3431],[73.8556,34.325],[73.9255,34.3465],[73.9961,34.2743],[73.9001,34.0609],[73.9175,34.02]]]},"properties":{"district":"Hattian Bala","st_nm":"Jammu & Kashmir","source":"alhasan-pok"}},{"type":"Feature","geometry":{"type":"Polygon","coordinates":[[[74.2682,33.9866],[74.2655,33.9882],[74.1624,34.01],[74.1489,33.9283],[74.0034,33.863],[74.0003,33.8661],[73.9749,33.9184],[73.9515,34.0159],[74.1688,34.0387],[74.2564,34.0026],[74.2686,33.9895],[74.2682,33.9866]]]},"properties":{"district":"Haveli","st_nm":"Jammu & Kashmir","source":"alhasan-pok"}},{"type":"Feature","geometry":{"type":"Polygon","coordinates":[[[73.9039,33.5995],[73.9207,33.5617],[74.0815,33.5216],[74.0738,33.4367],[74.1288,33.3754],[74.1537,33.328],[74.1546,33.3227],[74.1423,33.3149],[74.142,33.3147],[74.1274,33.3009],[74.0974,33.2848],[74.0491,33.2809],[74.009,33.2436],[73.9061,33.2249],[73.7732,33.3376],[73.7643,33.4092],[73.6971,33.4595],[73.6298,33.4578],[73.6285,33.5677],[73.572,33.6304],[73.5964,33.6832],[73.6971,33.616],[73.8006,33.6142],[73.8589,33.5877],[73.8951,33.5921],[73.8952,33.5922],[73.9039,33.5995]]]},"properties":{"district":"Kotli","st_nm":"Jammu & Kashmir","source":"alhasan-pok"}},{"type":"Feature","geometry":{"type":"Polygon","coordinates":[[[73.9061,33.2249],[73.9164,33.1714],[73.858,33.0998],[73.8553,33.0248],[73.776,33.0211],[73.6534,33.0804],[73.6703,33.211],[73.6274,33.2415],[73.576,33.3774],[73.6298,33.4578],[73.6971,33.4595],[73.7643,33.4092],[73.7732,33.3376],[73.9061,33.2249]]]},"properties":{"district":"Mirpur","st_nm":"Jammu & Kashmir","source":"alhasan-pok"}},{"type":"Feature","geometry":{"type":"Polygon","coordinates":[[[73.6945,34.0693],[73.6185,34.0623],[73.5015,34.1031],[73.499,34.2076],[73.3984,34.3783],[73.4657,34.575],[73.6059,34.5851],[73.6553,34.5624],[73.7679,34.5149],[73.7378,34.4618],[73.7583,34.3779],[73.7587,34.3431],[73.7524,34.2485],[73.6495,34.1456],[73.6945,34.0693]]]},"properties":{"district":"Muzaffarabad","st_nm":"Jammu & Kashmir","source":"alhasan-pok"}},{"type":"Feature","geometry":{"type":"Polygon","coordinates":[[[73.9468,34.5326],[73.9339,34.5285],[73.8932,34.4977],[73.8902,34.4601],[73.7583,34.3779],[73.7378,34.4618],[73.7679,34.5149],[73.6553,34.5624],[73.6635,34.6626],[73.728,34.7643],[73.8382,34.8141],[73.9275,34.8113],[74.0716,34.9379],[74.0767,35.0475],[74.1286,35.1052],[74.2431,35.0456],[74.3631,35.0575],[74.4388,35.1309],[74.5098,35.1015],[74.599,34.9107],[74.6655,34.9],[74.7992,34.7562],[74.793,34.7319],[74.7692,34.7258],[74.7504,34.7203],[74.7293,34.7142],[74.6487,34.7104],[74.6041,34.7403],[74.6041,34.7542],[74.575,34.7626],[74.5728,34.7644],[74.5605,34.7746],[74.5573,34.7772],[74.5258,34.7664],[74.456,34.7818],[74.4352,34.7741],[74.4191,34.7803],[74.4114,34.7823],[74.3682,34.7549],[74.359,34.7124],[74.3228,34.692],[74.3224,34.6912],[74.2794,34.6352],[74.2472,34.639],[74.228,34.6352],[74.2232,34.636],[74.199,34.6224],[74.1919,34.6144],[74.188,34.6037],[74.1013,34.5937],[73.9892,34.5423],[73.9577,34.5361],[73.9468,34.5326]]]},"properties":{"district":"Neelum","st_nm":"Jammu & Kashmir","source":"alhasan-pok"}},{"type":"Feature","geometry":{"type":"Polygon","coordinates":[[[74.0034,33.863],[73.9448,33.8367],[73.8845,33.7428],[73.8844,33.7399],[73.8801,33.7521],[73.8253,33.738],[73.744,33.8069],[73.5734,33.8184],[73.5855,33.9093],[73.6627,33.9731],[73.7917,33.875],[73.8439,33.9059],[73.9749,33.9184],[74.0003,33.8661],[74.0034,33.863]]]},"properties":{"district":"Poonch","st_nm":"Jammu & Kashmir","source":"alhasan-pok"}},{"type":"Feature","geometry":{"type":"Polygon","coordinates":[[[73.8844,33.7399],[73.8815,33.6498],[73.9039,33.5995],[73.8952,33.5922],[73.8951,33.5921],[73.8589,33.5877],[73.8006,33.6142],[73.6971,33.616],[73.5964,33.6832],[73.5734,33.8184],[73.744,33.8069],[73.8253,33.738],[73.8801,33.7521],[73.8844,33.7399]]]},"properties":{"district":"Sudhnoti","st_nm":"Jammu & Kashmir","source":"alhasan-pok"}},{"type":"Feature","geometry":{"type":"Polygon","coordinates":[[[74.7992,34.7562],[74.6655,34.9],[74.599,34.9107],[74.5098,35.1015],[74.4388,35.1309],[74.4991,35.226],[74.6398,35.2668],[74.7304,35.3958],[74.6656,35.568],[74.6124,35.6324],[74.6563,35.7058],[74.6226,35.7974],[74.7303,35.8597],[74.7541,35.7262],[74.8608,35.7146],[74.8638,35.5621],[75.0676,35.4382],[75.1739,35.3385],[75.1724,35.2285],[75.2457,35.1662],[75.1973,35.1097],[75.2281,35.0196],[75.1959,34.9382],[75.105,34.8993],[75.2494,34.793],[75.2611,34.6896],[75.2165,34.637],[75.1408,34.6927],[75.0141,34.619],[74.8951,34.6567],[74.7992,34.7562]]]},"properties":{"district":"Astore","st_nm":"Jammu & Kashmir","source":"alhasan-pok"}},{"type":"Feature","geometry":{"type":"Polygon","coordinates":[[[74.4388,35.1309],[74.3631,35.0575],[74.2431,35.0456],[74.1286,35.1052],[74.1165,35.1454],[73.9579,35.165],[73.8093,35.2429],[73.7499,35.231],[73.6929,35.3326],[73.7856,35.5245],[73.4999,35.5429],[73.4178,35.5251],[73.331,35.6629],[73.192,35.6772],[73.126,35.7212],[73.2003,35.7871],[73.1941,35.8362],[73.2682,35.8672],[73.2747,35.9382],[73.3419,35.9466],[73.4225,35.8844],[73.5183,35.8569],[73.681,35.8827],[73.7375,35.8559],[73.8368,35.8739],[73.9492,35.8534],[74.0998,35.7696],[74.245,35.6369],[74.3953,35.5723],[74.5331,35.5775],[74.6124,35.6324],[74.6656,35.568],[74.7304,35.3958],[74.6398,35.2668],[74.4991,35.226],[74.4388,35.1309]]]},"properties":{"district":"Diamir","st_nm":"Jammu & Kashmir","source":"alhasan-pok"}},{"type":"Feature","geometry":{"type":"MultiPolygon","coordinates":[[[[76.6866,34.8292],[76.5393,34.8254],[76.4675,34.8288],[76.4622,34.8321],[76.3948,35.011],[76.0019,35.1448],[75.9109,35.2267],[75.9933,35.3754],[76.0062,35.4613],[76.1494,35.5223],[76.2216,35.5931],[76.3292,35.6519],[76.4533,35.6804],[76.61,35.5646],[76.6702,35.4596],[76.7255,35.4253],[76.7903,35.5223],[76.8186,35.5554],[76.8209,35.5602],[76.9132,35.3783],[77.049,35.1104],[77.0448,35.0744],[77.0896,35.0466],[77.0538,35.0374],[76.9679,35.0029],[76.7445,34.8785],[76.7007,34.8371],[76.6866,34.8292]]],[[[77.1844,35.5239],[77.1775,35.5232],[77.1053,35.538],[77.039,35.585],[76.8964,35.5896],[76.8805,35.6007],[76.8752,35.607],[76.8957,35.6236],[76.8965,35.6283],[77.0109,35.6156],[77.053,35.6032],[77.1064,35.5622],[77.1284,35.5569],[77.1731,35.5334],[77.1844,35.5239]]],[[[77.4154,35.4697],[77.4128,35.4694],[77.2508,35.5307],[77.2403,35.5296],[77.249,35.5324],[77.3023,35.5437],[77.3458,35.4976],[77.3762,35.4965],[77.4039,35.4739],[77.4154,35.4697]]]]},"properties":{"district":"Ghanche","st_nm":"Jammu & Kashmir","source":"alhasan-pok"}},{"type":"Feature","geometry":{"type":"Polygon","coordinates":[[[73.9492,35.8534],[73.8368,35.8739],[73.7375,35.8559],[73.681,35.8827],[73.5183,35.8569],[73.4225,35.8844],[73.3419,35.9466],[73.2747,35.9382],[73.2682,35.8672],[73.1941,35.8362],[73.0922,35.8756],[72.9246,35.8418],[72.8908,35.8774],[72.6834,35.8204],[72.5685,35.8518],[72.5099,35.9024],[72.5681,36.0123],[72.5301,36.0604],[72.5491,36.2327],[72.6525,36.2636],[72.8572,36.3883],[72.8715,36.4524],[72.9591,36.4728],[73.075,36.6094],[73.0494,36.6849],[73.1522,36.73],[73.2681,36.7211],[73.3744,36.758],[73.6037,36.7098],[73.8681,36.755],[73.785,36.8346],[73.684,36.8655],[73.6699,36.9224],[73.9109,36.8886],[74.0461,36.8356],[74.1144,36.7578],[74.1958,36.7282],[74.2932,36.6467],[74.1874,36.5382],[74.124,36.5277],[74.0811,36.3843],[74.0306,36.3125],[74.0455,36.2398],[74.1213,36.1553],[74.0835,35.9748],[73.9488,35.9069],[73.9492,35.8534]]]},"properties":{"district":"Ghizer","st_nm":"Jammu & Kashmir","source":"alhasan-pok"}},{"type":"Feature","geometry":{"type":"Polygon","coordinates":[[[74.7541,35.7262],[74.7303,35.8597],[74.6226,35.7974],[74.6563,35.7058],[74.6124,35.6324],[74.5331,35.5775],[74.3953,35.5723],[74.245,35.6369],[74.0998,35.7696],[73.9492,35.8534],[73.9488,35.9069],[74.0835,35.9748],[74.1213,36.1553],[74.0455,36.2398],[74.0306,36.3125],[74.0811,36.3843],[74.1643,36.2412],[74.2283,36.1846],[74.3626,36.1647],[74.4213,36.0892],[74.4895,36.1552],[74.6238,36.1437],[74.7433,36.0629],[74.8535,36.0461],[74.8944,36.0044],[74.9437,35.9638],[74.9701,35.8693],[74.7541,35.7262]]]},"properties":{"district":"Gilgit","st_nm":"Jammu & Kashmir","source":"alhasan-pok"}},{"type":"Feature","geometry":{"type":"Polygon","coordinates":[[[74.0811,36.3843],[74.124,36.5277],[74.1874,36.5382],[74.2932,36.6467],[74.1958,36.7282],[74.1144,36.7578],[74.0461,36.8356],[74.1297,36.8574],[74.151,36.9179],[74.2773,36.9153],[74.424,37.0069],[74.5005,37.0086],[74.7042,37.0976],[74.7348,37.0375],[74.9233,36.9835],[75.0334,37.0259],[75.2818,36.983],[75.419,36.9448],[75.4264,36.7843],[75.6334,36.7801],[75.7356,36.7531],[75.9411,36.6064],[76.0385,36.4151],[75.9877,36.3463],[76.0602,36.2515],[76.0168,36.1725],[75.9353,36.1413],[75.9489,36.0733],[75.7846,36.0181],[75.7311,36.1075],[75.4569,36.1574],[75.3396,36.2527],[75.2164,36.2029],[75.1526,36.0834],[75.0602,36.0364],[75.0141,36.087],[74.9107,36.0496],[74.8944,36.0044],[74.8535,36.0461],[74.7433,36.0629],[74.6238,36.1437],[74.4895,36.1552],[74.4213,36.0892],[74.3626,36.1647],[74.2283,36.1846],[74.1643,36.2412],[74.0811,36.3843]]]},"properties":{"district":"Hunza Nagar","st_nm":"Jammu & Kashmir","source":"alhasan-pok"}},{"type":"Feature","geometry":{"type":"Polygon","coordinates":[[[76.4675,34.8288],[76.3751,34.8331],[76.4125,34.8007],[76.4438,34.7475],[76.4197,34.7281],[76.3529,34.6597],[76.1856,34.6014],[76.0059,34.6467],[75.9038,34.5446],[75.8271,34.5139],[75.6536,34.5108],[75.5338,34.5423],[75.4302,34.5446],[75.4246,34.5465],[75.4175,34.5489],[75.4056,34.553],[75.3588,34.5653],[75.3265,34.5691],[75.2165,34.637],[75.2611,34.6896],[75.2494,34.793],[75.105,34.8993],[75.1959,34.9382],[75.2281,35.0196],[75.1973,35.1097],[75.2457,35.1662],[75.1724,35.2285],[75.1739,35.3385],[75.0676,35.4382],[74.8638,35.5621],[74.8608,35.7146],[74.7541,35.7262],[74.9701,35.8693],[74.9437,35.9638],[74.8944,36.0044],[74.9107,36.0496],[75.0141,36.087],[75.0602,36.0364],[75.1526,36.0834],[75.2164,36.2029],[75.3396,36.2527],[75.4569,36.1574],[75.7311,36.1075],[75.7846,36.0181],[75.9489,36.0733],[75.9805,36.0345],[76.0996,36.0242],[76.1653,35.9082],[76.1519,35.8291],[76.2915,35.8445],[76.3654,35.8281],[76.5717,35.9298],[76.5683,35.8127],[76.699,35.7449],[76.7667,35.6556],[76.856,35.6669],[76.8965,35.6283],[76.8957,35.6236],[76.8752,35.607],[76.8569,35.6286],[76.843,35.6413],[76.7774,35.6461],[76.8209,35.5602],[76.8186,35.5554],[76.7903,35.5223],[76.7255,35.4253],[76.6702,35.4596],[76.61,35.5646],[76.4533,35.6804],[76.3292,35.6519],[76.2216,35.5931],[76.1494,35.5223],[76.0062,35.4613],[75.9933,35.3754],[75.9109,35.2267],[76.0019,35.1448],[76.3948,35.011],[76.4622,34.8321],[76.4675,34.8288]]]},"properties":{"district":"Skardu","st_nm":"Jammu & Kashmir","source":"alhasan-pok"}}]}